[{"OBJECT_NAME":"STARLINK-5013","OBJECT_ID":"2023-015AV","EPOCH":"2026-03-09T22:00:01.999584","MEAN_MOTION":15.111897,"ECCENTRICITY":0.00014324,"INCLINATION":42.9998,"RA_OF_ASC_NODE":337.2411,"ARG_OF_PERICENTER":265.0781,"MEAN_ANOMALY":110.1108,"EPHEMERIS_TYPE":0,"CLASSIFICATION_TYPE":"U","NORAD_CAT_ID":55492,"ELEMENT_SET_NO":999,"REV_AT_EPOCH":572,"BSTAR":-0.00088768448,"MEAN_MOTION_DOT":-0.00015354,"MEAN_MOTION_DDOT":0},{"OBJECT_NAME":"CZ-6A DEB","OBJECT_ID":"2022-151VX","EPOCH":"2026-03-09T17:15:51.308640","MEAN_MOTION":15.17668829,"ECCENTRICITY":0.00301527,"INCLINATION":98.6392,"RA_OF_ASC_NODE":152.1249,"ARG_OF_PERICENTER":179.6266,"MEAN_ANOMALY":180.4992,"EPHEMERIS_TYPE":0,"CLASSIFICATION_TYPE":"U","NORAD_CAT_ID":55206,"ELEMENT_SET_NO":999,"REV_AT_EPOCH":17057,"BSTAR":0.00785456,"MEAN_MOTION_DOT":0.00163373,"MEAN_MOTION_DDOT":0}]
